{
    "links": {
        "self": "http://www.neowsapp.com/rest/v1/neo/3760433?api_key=iIulBulltgU6a56xZRHN4H3l9WmuAYTsLGpBGhQ2"
    },
    "id": "3760433",
    "neo_reference_id": "3760433",
    "name": "(2016 TD10)",
    "designation": "2016 TD10",
    "nasa_jpl_url": "http://ssd.jpl.nasa.gov/sbdb.cgi?sstr=3760433",
    "absolute_magnitude_h": 21.6,
    "estimated_diameter": {
        "kilometers": {
            "estimated_diameter_min": 0.1272198785,
            "estimated_diameter_max": 0.2844722965
        },
        "meters": {
            "estimated_diameter_min": 127.2198785394,
            "estimated_diameter_max": 284.4722965033
        },
        "miles": {
            "estimated_diameter_min": 0.0790507431,
            "estimated_diameter_max": 0.1767628354
        },
        "feet": {
            "estimated_diameter_min": 417.3880663071,
            "estimated_diameter_max": 933.3080892598
        }
    },
    "is_potentially_hazardous_asteroid": false,
    "close_approach_data": [
        {
            "close_approach_date": "2016-08-13",
            "close_approach_date_full": "2016-Aug-13 14:26",
            "epoch_date_close_approach": 1471098360000,
            "relative_velocity": {
                "kilometers_per_second": "9.2833529522",
                "kilometers_per_hour": "33420.0706280669",
                "miles_per_hour": "20765.9322188674"
            },
            "miss_distance": {
                "astronomical": "0.2879954866",
                "lunar": "112.0302442874",
                "kilometers": "43083511.364973542",
                "miles": "26770852.5812651996"
            },
            "orbiting_body": "Earth"
        }
    ],
    "orbital_data": {
        "orbit_id": "3",
        "orbit_determination_date": "2017-04-06 08:23:24",
        "first_observation_date": "2016-10-01",
        "last_observation_date": "2016-10-09",
        "data_arc_in_days": 8,
        "observations_used": 14,
        "orbit_uncertainty": "9",
        "minimum_orbit_intersection": ".138905",
        "jupiter_tisserand_invariant": "3.504",
        "epoch_osculation": "2457663.5",
        "eccentricity": ".4740874060723093",
        "semi_major_axis": "2.194413920528776",
        "inclination": "7.688263115744507",
        "ascending_node_longitude": "305.909700567759",
        "orbital_period": "1187.343150580394",
        "perihelion_distance": "1.154069917096322",
        "perihelion_argument": "4.594882559808604",
        "aphelion_distance": "3.23475792396123",
        "perihelion_time": "2457616.977793004235",
        "mean_anomaly": "14.10543743002071",
        "mean_motion": ".3031979422494885",
        "equinox": "J2000",
        "orbit_class": {
            "orbit_class_type": "AMO",
            "orbit_class_description": "Near-Earth asteroid orbits similar to that of 1221 Amor",
            "orbit_class_range": "1.017 AU < q (perihelion) < 1.3 AU"
        }
    },
    "is_sentry_object": false
}